{"fetched_at":"2026-07-18T17:29:29.751Z","source":"https://celestrak.org/NORAD/elements/gp.php?GROUP=kuiper&FORMAT=JSON","constellation":"kuiper","records":[{"OBJECT_NAME":"KUIPER-00500","OBJECT_ID":"2026-095U","EPOCH":"2026-07-18T03:52:43.143744","CLASSIFICATION_TYPE":"U","MEAN_MOTION":14.79930906,"ECCENTRICITY":0.00013774,"INCLINATION":51.9017,"RA_OF_ASC_NODE":113.6879,"ARG_OF_PERICENTER":48.9372,"MEAN_ANOMALY":311.1709,"EPHEMERIS_TYPE":0,"NORAD_CAT_ID":68882,"ELEMENT_SET_NO":999,"REV_AT_EPOCH":1220,"BSTAR":0.00025769522,"MEAN_MOTION_DOT":0.00001744,"MEAN_MOTION_DDOT":0},{"OBJECT_NAME":"KUIPER-00502","OBJECT_ID":"2026-095V","EPOCH":"2026-07-18T06:00:02.000160","CLASSIFICATION_TYPE":"U","MEAN_MOTION":15.2067712,"ECCENTRICITY":0.00058689,"INCLINATION":51.8844,"RA_OF_ASC_NODE":92.5375,"ARG_OF_PERICENTER":50.4958,"MEAN_ANOMALY":283.4267,"EPHEMERIS_TYPE":0,"NORAD_CAT_ID":68883,"ELEMENT_SET_NO":999,"REV_AT_EPOCH":258,"BSTAR":-0.035783907,"MEAN_MOTION_DOT":-0.00741883,"MEAN_MOTION_DDOT":0},{"OBJECT_NAME":"KUIPER-00503","OBJECT_ID":"2026-095W","EPOCH":"2026-07-18T03:07:58.312128","CLASSIFICATION_TYPE":"U","MEAN_MOTION":14.79945683,"ECCENTRICITY":0.00008597,"INCLINATION":51.8987,"RA_OF_ASC_NODE":111.3162,"ARG_OF_PERICENTER":101.2283,"MEAN_ANOMALY":258.8776,"EPHEMERIS_TYPE":0,"NORAD_CAT_ID":68884,"ELEMENT_SET_NO":999,"REV_AT_EPOCH":1223,"BSTAR":0.00025926768,"MEAN_MOTION_DOT":0.00001756,"MEAN_MOTION_DDOT":0},{"OBJECT_NAME":"KUIPER-00504","OBJECT_ID":"2026-095X","EPOCH":"2026-07-18T03:44:57.409728","CLASSIFICATION_TYPE":"U","MEAN_MOTION":14.79930227,"ECCENTRICITY":0.00009504,"INCLINATION":51.9016,"RA_OF_ASC_NODE":118.7125,"ARG_OF_PERICENTER":85.095,"MEAN_ANOMALY":275.012,"EPHEMERIS_TYPE":0,"NORAD_CAT_ID":68885,"ELEMENT_SET_NO":999,"REV_AT_EPOCH":1213,"BSTAR":0.000041001402,"MEAN_MOTION_DOT":9.1e-7,"MEAN_MOTION_DDOT":0},{"OBJECT_NAME":"KUIPER-00505","OBJECT_ID":"2026-095Y","EPOCH":"2026-07-18T03:11:51.165312","CLASSIFICATION_TYPE":"U","MEAN_MOTION":14.79934069,"ECCENTRICITY":0.00006224,"INCLINATION":51.9023,"RA_OF_ASC_NODE":108.8173,"ARG_OF_PERICENTER":95.0833,"MEAN_ANOMALY":265.0201,"EPHEMERIS_TYPE":0,"NORAD_CAT_ID":68886,"ELEMENT_SET_NO":999,"REV_AT_EPOCH":1226,"BSTAR":0.00025030593,"MEAN_MOTION_DOT":0.00001688,"MEAN_MOTION_DDOT":0},{"OBJECT_NAME":"KUIPER-00507","OBJECT_ID":"2026-095Z","EPOCH":"2026-07-18T06:00:02.000160","CLASSIFICATION_TYPE":"U","MEAN_MOTION":14.80688711,"ECCENTRICITY":0.00010888,"INCLINATION":51.8985,"RA_OF_ASC_NODE":98.0302,"ARG_OF_PERICENTER":180.1184,"MEAN_ANOMALY":251.0573,"EPHEMERIS_TYPE":0,"NORAD_CAT_ID":68887,"ELEMENT_SET_NO":999,"REV_AT_EPOCH":589,"BSTAR":-0.0071297568,"MEAN_MOTION_DOT":-0.00055113,"MEAN_MOTION_DDOT":0},{"OBJECT_NAME":"KUIPER-00511","OBJECT_ID":"2026-095AA","EPOCH":"2026-07-18T06:00:02.000160","CLASSIFICATION_TYPE":"U","MEAN_MOTION":15.12691638,"ECCENTRICITY":0.00058046,"INCLINATION":51.8914,"RA_OF_ASC_NODE":93.039,"ARG_OF_PERICENTER":34.3857,"MEAN_ANOMALY":2.285,"EPHEMERIS_TYPE":0,"NORAD_CAT_ID":68888,"ELEMENT_SET_NO":999,"REV_AT_EPOCH":197,"BSTAR":-0.06861567,"MEAN_MOTION_DOT":-0.0112285,"MEAN_MOTION_DDOT":0},{"OBJECT_NAME":"KUIPER-00512","OBJECT_ID":"2026-095AB","EPOCH":"2026-07-17T23:04:51.578976","CLASSIFICATION_TYPE":"U","MEAN_MOTION":14.79928589,"ECCENTRICITY":0.00009161,"INCLINATION":51.9022,"RA_OF_ASC_NODE":112.0754,"ARG_OF_PERICENTER":105.385,"MEAN_ANOMALY":254.7213,"EPHEMERIS_TYPE":0,"NORAD_CAT_ID":68889,"ELEMENT_SET_NO":999,"REV_AT_EPOCH":1220,"BSTAR":0.0000534335,"MEAN_MOTION_DOT":0.00000186,"MEAN_MOTION_DDOT":0},{"OBJECT_NAME":"KUIPER-00519","OBJECT_ID":"2026-095AC","EPOCH":"2026-07-18T00:57:41.542560","CLASSIFICATION_TYPE":"U","MEAN_MOTION":14.79943314,"ECCENTRICITY":0.00026239,"INCLINATION":51.9032,"RA_OF_ASC_NODE":101.7895,"ARG_OF_PERICENTER":20.6376,"MEAN_ANOMALY":339.4692,"EPHEMERIS_TYPE":0,"NORAD_CAT_ID":68890,"ELEMENT_SET_NO":999,"REV_AT_EPOCH":1235,"BSTAR":0.00023767217,"MEAN_MOTION_DOT":0.00001591,"MEAN_MOTION_DDOT":0},{"OBJECT_NAME":"KUIPER-00521","OBJECT_ID":"2026-095AD","EPOCH":"2026-07-18T06:00:02.000160","CLASSIFICATION_TYPE":"U","MEAN_MOTION":14.95053538,"ECCENTRICITY":0.00025387,"INCLINATION":51.8948,"RA_OF_ASC_NODE":95.0039,"ARG_OF_PERICENTER":0.5076,"MEAN_ANOMALY":184.2216,"EPHEMERIS_TYPE":0,"NORAD_CAT_ID":68891,"ELEMENT_SET_NO":999,"REV_AT_EPOCH":503,"BSTAR":-0.0021019772,"MEAN_MOTION_DOT":-0.00023435,"MEAN_MOTION_DDOT":0},{"OBJECT_NAME":"KUIPER-00524","OBJECT_ID":"2026-095AE","EPOCH":"2026-07-18T00:43:33.384000","CLASSIFICATION_TYPE":"U","MEAN_MOTION":14.76418611,"ECCENTRICITY":0.00023201,"INCLINATION":51.8988,"RA_OF_ASC_NODE":103.1518,"ARG_OF_PERICENTER":111.3129,"MEAN_ANOMALY":248.8079,"EPHEMERIS_TYPE":0,"NORAD_CAT_ID":68892,"ELEMENT_SET_NO":999,"REV_AT_EPOCH":1233,"BSTAR":0.00015544687,"MEAN_MOTION_DOT":0.00000876,"MEAN_MOTION_DDOT":0},{"OBJECT_NAME":"KUIPER-00370","OBJECT_ID":"2026-098A","EPOCH":"2026-07-18T06:00:02.000160","CLASSIFICATION_TYPE":"U","MEAN_MOTION":15.07982906,"ECCENTRICITY":0.00099688,"INCLINATION":51.8813,"RA_OF_ASC_NODE":282.0295,"ARG_OF_PERICENTER":276.3846,"MEAN_ANOMALY":139.6756,"EPHEMERIS_TYPE":0,"NORAD_CAT_ID":68919,"ELEMENT_SET_NO":999,"REV_AT_EPOCH":539,"BSTAR":-0.0005623253,"MEAN_MOTION_DOT":-0.00009039,"MEAN_MOTION_DDOT":0},{"OBJECT_NAME":"KUIPER-00380","OBJECT_ID":"2026-098B","EPOCH":"2026-07-17T06:13:04.188000","CLASSIFICATION_TYPE":"U","MEAN_MOTION":15.29387868,"ECCENTRICITY":0.0006703,"INCLINATION":51.8746,"RA_OF_ASC_NODE":284.4952,"ARG_OF_PERICENTER":267.7575,"MEAN_ANOMALY":92.2641,"EPHEMERIS_TYPE":0,"NORAD_CAT_ID":68920,"ELEMENT_SET_NO":999,"REV_AT_EPOCH":1194,"BSTAR":-0.000041629,"MEAN_MOTION_DOT":-0.00001565,"MEAN_MOTION_DDOT":0},{"OBJECT_NAME":"KUIPER-00386","OBJECT_ID":"2026-098C","EPOCH":"2026-07-18T06:00:02.000160","CLASSIFICATION_TYPE":"U","MEAN_MOTION":15.207311,"ECCENTRICITY":0.0002294,"INCLINATION":51.883,"RA_OF_ASC_NODE":278.1417,"ARG_OF_PERICENTER":26.3408,"MEAN_ANOMALY":133.0772,"EPHEMERIS_TYPE":0,"NORAD_CAT_ID":68921,"ELEMENT_SET_NO":999,"REV_AT_EPOCH":552,"BSTAR":0.00035591382,"MEAN_MOTION_DOT":0.00007618,"MEAN_MOTION_DDOT":0},{"OBJECT_NAME":"KUIPER-00388","OBJECT_ID":"2026-098D","EPOCH":"2026-07-18T06:00:02.000160","CLASSIFICATION_TYPE":"U","MEAN_MOTION":14.80232427,"ECCENTRICITY":0.00036909,"INCLINATION":51.9002,"RA_OF_ASC_NODE":285.5981,"ARG_OF_PERICENTER":287.9696,"MEAN_ANOMALY":10.3141,"EPHEMERIS_TYPE":0,"NORAD_CAT_ID":68922,"ELEMENT_SET_NO":999,"REV_AT_EPOCH":556,"BSTAR":-0.0036173861,"MEAN_MOTION_DOT":-0.00027885,"MEAN_MOTION_DDOT":0},{"OBJECT_NAME":"KUIPER-00405","OBJECT_ID":"2026-098E","EPOCH":"2026-07-18T06:00:02.000160","CLASSIFICATION_TYPE":"U","MEAN_MOTION":14.88572753,"ECCENTRICITY":0.00082619,"INCLINATION":51.8989,"RA_OF_ASC_NODE":283.3529,"ARG_OF_PERICENTER":281.3222,"MEAN_ANOMALY":74.6545,"EPHEMERIS_TYPE":0,"NORAD_CAT_ID":68923,"ELEMENT_SET_NO":999,"REV_AT_EPOCH":525,"BSTAR":-0.0049753135,"MEAN_MOTION_DOT":-0.00046732,"MEAN_MOTION_DDOT":0}]}
