KUIPER-00500            
1 68882U 26095U   26199.16161046  .00001744  00000+0  25770-3 0  9995
2 68882  51.9017 113.6879 0001377  48.9372 311.1709 14.79930906 12208
KUIPER-00502            
1 68883U 26095V   26199.25002315 -.00741883  00000+0 -35784-1 0  9990
2 68883  51.8844  92.5375 0005868  50.4958 283.4267 15.20677120  2582
KUIPER-00503            
1 68884U 26095W   26199.13053602  .00001756  00000+0  25927-3 0  9999
2 68884  51.8987 111.3162 0000859 101.2283 258.8776 14.79945683 12235
KUIPER-00504            
1 68885U 26095X   26199.15622002  .00000091  00000+0  41001-4 0  9991
2 68885  51.9016 118.7125 0000950  85.0950 275.0120 14.79930227 12133
KUIPER-00505            
1 68886U 26095Y   26199.13323108  .00001688  00000+0  25031-3 0  9992
2 68886  51.9023 108.8173 0000622  95.0833 265.0201 14.79934069 12263
KUIPER-00507            
1 68887U 26095Z   26199.25002315 -.00055113  00000+0 -71298-2 0  9999
2 68887  51.8985  98.0302 0001088 180.1184 251.0573 14.80688711  5896
KUIPER-00511            
1 68888U 26095AA  26199.25002315 -.01122850  00000+0 -68616-1 0  9993
2 68888  51.8914  93.0390 0005804  34.3857   2.2850 15.12691638  1975
KUIPER-00512            
1 68889U 26095AB  26198.96170809  .00000186  00000+0  53434-4 0  9994
2 68889  51.9022 112.0754 0000916 105.3850 254.7213 14.79928589 12209
KUIPER-00519            
1 68890U 26095AC  26199.04006415  .00001591  00000+0  23767-3 0  9993
2 68890  51.9032 101.7895 0002623  20.6376 339.4692 14.79943314 12353
KUIPER-00521            
1 68891U 26095AD  26199.25002315 -.00023435  00000+0 -21020-2 0  9994
2 68891  51.8948  95.0039 0002538   0.5076 184.2216 14.95053538  5036
KUIPER-00524            
1 68892U 26095AE  26199.03024750  .00000876  00000+0  15545-3 0  9996
2 68892  51.8988 103.1518 0002320 111.3129 248.8079 14.76418611 12334
KUIPER-00370            
1 68919U 26098A   26199.25002315 -.00009039  00000+0 -56233-3 0  9997
2 68919  51.8813 282.0295 0009968 276.3846 139.6756 15.07982906  5398
KUIPER-00380            
1 68920U 26098B   26198.25907625 -.00001565  00000+0 -41629-4 0  9996
2 68920  51.8746 284.4952 0006703 267.7575  92.2641 15.29387868 11943
KUIPER-00386            
1 68921U 26098C   26199.25002315  .00007618  00000+0  35591-3 0  9993
2 68921  51.8830 278.1417 0002294  26.3408 133.0772 15.20731100  5528
KUIPER-00388            
1 68922U 26098D   26199.25002315 -.00027885  00000+0 -36174-2 0  9991
2 68922  51.9002 285.5981 0003690 287.9696  10.3141 14.80232427  5568
KUIPER-00405            
1 68923U 26098E   26199.25002315 -.00046732  00000+0 -49753-2 0  9991
2 68923  51.8989 283.3529 0008261 281.3222  74.6545 14.88572753  5252
